[{"OBJECT_NAME":"STARLINK-4016","OBJECT_ID":"2022-052F","EPOCH":"2026-03-09T20:21:18.095040","MEAN_MOTION":15.08838271,"ECCENTRICITY":0.00012483,"INCLINATION":53.2166,"RA_OF_ASC_NODE":278.4217,"ARG_OF_PERICENTER":92.9844,"MEAN_ANOMALY":267.1291,"EPHEMERIS_TYPE":0,"CLASSIFICATION_TYPE":"U","NORAD_CAT_ID":52603,"ELEMENT_SET_NO":999,"REV_AT_EPOCH":21168,"BSTAR":-1.3735737e-5,"MEAN_MOTION_DOT":-5.06e-6,"MEAN_MOTION_DDOT":0},{"OBJECT_NAME":"CZ-4B DEB","OBJECT_ID":"2008-053M","EPOCH":"2026-03-05T07:18:48.921696","MEAN_MOTION":15.08195439,"ECCENTRICITY":0.0017401,"INCLINATION":97.8281,"RA_OF_ASC_NODE":90.6528,"ARG_OF_PERICENTER":258.7901,"MEAN_ANOMALY":101.1371,"EPHEMERIS_TYPE":0,"CLASSIFICATION_TYPE":"U","NORAD_CAT_ID":44593,"ELEMENT_SET_NO":999,"REV_AT_EPOCH":67199,"BSTAR":0.00019653,"MEAN_MOTION_DOT":2.982e-5,"MEAN_MOTION_DDOT":0}]
